STARLINK-3771           
1 52293U 22041AJ  26068.49668498 -.00000885  00000+0 -37558-4 0  9990
2 52293  53.2160  99.9971 0001154  87.7529 272.3596 15.08837885214478
STARLINK-6085           
1 57115U 23090Q   26068.53746065  .00027564  00000+0  15302-2 0  9997
2 57115  42.9983 264.1938 0019382 205.4773 154.5119 15.13089153150525
